[{"OBJECT_NAME":"JILIN-1 GAOFEN 03D50","OBJECT_ID":"2022-167J","EPOCH":"2026-03-09T22:35:59.947584","MEAN_MOTION":15.32279726,"ECCENTRICITY":0.00065764,"INCLINATION":97.6731,"RA_OF_ASC_NODE":232.9458,"ARG_OF_PERICENTER":101.1473,"MEAN_ANOMALY":259.0507,"EPHEMERIS_TYPE":0,"CLASSIFICATION_TYPE":"U","NORAD_CAT_ID":54690,"ELEMENT_SET_NO":999,"REV_AT_EPOCH":18014,"BSTAR":0.00049467973,"MEAN_MOTION_DOT":0.00015359,"MEAN_MOTION_DDOT":0},{"OBJECT_NAME":"STARLINK-35848","OBJECT_ID":"2025-254B","EPOCH":"2026-03-09T17:52:01.031232","MEAN_MOTION":15.30164496,"ECCENTRICITY":3.822e-5,"INCLINATION":53.157,"RA_OF_ASC_NODE":232.2323,"ARG_OF_PERICENTER":136.6992,"MEAN_ANOMALY":223.4039,"EPHEMERIS_TYPE":0,"CLASSIFICATION_TYPE":"U","NORAD_CAT_ID":66349,"ELEMENT_SET_NO":999,"REV_AT_EPOCH":1898,"BSTAR":0.0011341319,"MEAN_MOTION_DOT":0.00033345,"MEAN_MOTION_DDOT":0}]
